ONEWEB-0012             
1 44057U 19010A   26197.13200586  .00000035  00000+0  58461-4 0  9996
2 44057  87.9077 223.0353 0001645  94.6878 265.4441 13.16593889355378
ONEWEB-0010             
1 44058U 19010B   26197.08135944  .00000067  00000+0  14108-3 0  9990
2 44058  87.9080 223.0413 0002299  99.8199 260.3192 13.16593815355410
ONEWEB-0008             
1 44059U 19010C   26197.10668799 -.00000106  00000+0 -31020-3 0  9991
2 44059  87.9078 223.0316 0002161  86.0846 274.0532 13.16593412355531
ONEWEB-0007             
1 44060U 19010D   26197.08871937  .00000047  00000+0  90501-4 0  9992
2 44060  87.8984 253.4624 0001966 105.7610 254.3737 13.15548224355175
ONEWEB-0006             
1 44061U 19010E   26197.09266235 -.00000019  00000+0 -83901-4 0  9990
2 44061  87.8995 253.4287 0002254  96.9028 263.2359 13.15550988355223
ONEWEB-0011             
1 44062U 19010F   26197.13703189  .00000199  00000+0  49567-3 0  9996
2 44062  87.8996 253.4299 0002279  97.4758 262.6632 13.15549694355220
ONEWEB-0013             
1 45131U 20008A   26197.12973499  .00000138  00000+0  36369-3 0  9994
2 45131  87.8487  46.9816 0000928  64.7912 295.3311 13.09454956309855
ONEWEB-0017             
1 45132U 20008B   26197.09196537 -.00000367  00000+0 -10883-2 0  9999
2 45132  87.8810  30.5075 0002025  92.9808 267.1551 13.10372206311731
ONEWEB-0020             
1 45133U 20008C   26197.06142845  .00000677  00000+0  19038-2 0  9993
2 45133  87.8822  30.5131 0001830  86.7937 273.3400 13.10373759312125
ONEWEB-0021             
1 45134U 20008D   26197.07669027  .00000405  00000+0  11251-2 0  9999
2 45134  87.8812  30.5246 0001766  91.2561 268.8768 13.10369333312437
ONEWEB-0023             
1 45136U 20008F   26197.08771390 -.00000110  00000+0 -35258-3 0  9998
2 45136  87.8816  30.5063 0001807  83.3059 276.8273 13.10368583311862
ONEWEB-0024             
1 45137U 20008G   26197.05986126  .00000580  00000+0  16262-2 0  9993
2 45137  87.8828  30.5055 0001860  90.0224 270.1117 13.10373470312029
ONEWEB-0025             
1 45138U 20008H   26197.05958771  .00000548  00000+0  15326-2 0  9993
2 45138  87.8829  30.4956 0002222  80.1437 279.9941 13.10374161312355
ONEWEB-0026             
1 45139U 20008J   26196.99874226 -.00000225  00000+0 -67193-3 0  9992
2 45139  87.8884  15.3302 0001993  91.3659 268.7697 13.11418773314881
ONEWEB-0028             
1 45140U 20008K   26197.05045686 -.00000296  00000+0 -87116-3 0  9997
2 45140  87.8877  15.3270 0001283  86.3181 273.8094 13.11414726312403
ONEWEB-0032             
1 45141U 20008L   26197.09379904 -.00000454  00000+0 -13383-2 0  9995
2 45141  87.8814  30.5092 0001449  78.4467 281.6823 13.10370682312081
ONEWEB-0033             
1 45142U 20008M   26197.06821404  .00000670  00000+0  18818-2 0  9996
2 45142  87.8811  30.5202 0002276  95.8629 264.2757 13.10371710311999
ONEWEB-0035             
1 45143U 20008N   26197.08870347 -.00000157  00000+0 -48483-3 0  9993
2 45143  87.8809  30.5095 0001829  91.0529 269.0808 13.10373717311727
ONEWEB-0036             
1 45144U 20008P   26197.06640661  .00000617  00000+0  17310-2 0  9999
2 45144  87.8830  30.5314 0001738  82.1434 277.9890 13.10373721312142
ONEWEB-0038             
1 45145U 20008Q   26197.00906039  .00000205  00000+0  54347-3 0  9993
2 45145  87.8901  15.3410 0002047 141.7676 218.3598 13.11418965314107
ONEWEB-0039             
1 45146U 20008R   26197.07160963  .00000620  00000+0  17396-2 0  9992
2 45146  87.8816  30.5106 0001324  82.6340 277.4937 13.10370917311947
ONEWEB-0040             
1 45147U 20008S   26197.06481427  .00000683  00000+0  19199-2 0  9995
2 45147  87.8815  30.5222 0001853  76.7791 283.3543 13.10372431311646
ONEWEB-0043             
1 45149U 20008U   26197.06665285  .00000645  00000+0  18124-2 0  9998
2 45149  87.8821  30.5114 0001344  80.2590 279.8689 13.10374992311967
ONEWEB-0044             
1 45150U 20008V   26197.09535609 -.00000539  00000+0 -15792-2 0  9991
2 45150  87.8822  30.5076 0001734  85.5785 274.5541 13.10372819312263
ONEWEB-0045             
1 45151U 20008W   26197.00383179 -.00000008  00000+0 -59174-4 0  9991
2 45151  87.8893  15.3231 0001715  91.2101 268.9223 13.11418754314188
ONEWEB-0047             
1 45152U 20008X   26197.08842323 -.00000095  00000+0 -30777-3 0  9994
2 45152  87.8820  30.5080 0001890  94.2175 265.9168 13.10369232311983
ONEWEB-0048             
1 45153U 20008Y   26197.08348749  .00000167  00000+0  44144-3 0  9999
2 45153  87.8811  30.5275 0001724  92.9100 267.2225 13.10370734311594
ONEWEB-0049             
1 45154U 20008Z   26197.01036346 -.00000047  00000+0 -16965-3 0  9999
2 45154  87.8809  30.5313 0001891  76.5950 283.5388 13.10369223311807
ONEWEB-0051             
1 45155U 20008AA  26197.00213591 -.00000104  00000+0 -32848-3 0  9990
2 45155  87.8887  15.3292 0001836  89.8520 270.2819 13.11419423314860
ONEWEB-0052             
1 45156U 20008AB  26197.03101311 -.00000599  00000+0 -17517-2 0  9993
2 45156  87.8822  30.5151 0001744  76.5216 283.6105 13.10375662311718
ONEWEB-0053             
1 45157U 20008AC  26197.06312119  .00000739  00000+0  20805-2 0  9995
2 45157  87.8814  30.5281 0001464  77.6330 282.4961 13.10372691311695
